[{"OBJECT_NAME":"STARLINK-34942","OBJECT_ID":"2025-175H","EPOCH":"2026-03-09T15:55:10.206912","MEAN_MOTION":15.05658299,"ECCENTRICITY":0.00026692,"INCLINATION":97.6035,"RA_OF_ASC_NODE":302.5892,"ARG_OF_PERICENTER":80.0541,"MEAN_ANOMALY":280.0987,"EPHEMERIS_TYPE":0,"CLASSIFICATION_TYPE":"U","NORAD_CAT_ID":65181,"ELEMENT_SET_NO":999,"REV_AT_EPOCH":3260,"BSTAR":6.5515386e-5,"MEAN_MOTION_DOT":8.85e-6,"MEAN_MOTION_DDOT":0},{"OBJECT_NAME":"DMSP 5D-2 F13 DEB","OBJECT_ID":"1995-015BF","EPOCH":"2026-03-08T19:32:26.019456","MEAN_MOTION":15.08152744,"ECCENTRICITY":0.00224007,"INCLINATION":98.6145,"RA_OF_ASC_NODE":204.4302,"ARG_OF_PERICENTER":265.1662,"MEAN_ANOMALY":94.7005,"EPHEMERIS_TYPE":0,"CLASSIFICATION_TYPE":"U","NORAD_CAT_ID":40463,"ELEMENT_SET_NO":999,"REV_AT_EPOCH":57796,"BSTAR":0.0090845916,"MEAN_MOTION_DOT":0.00143794,"MEAN_MOTION_DDOT":0}]
